start=new Date('2021-10-05T00:00:00.000Z').valueOf();
sats=[{"ECCENTRICITY":"0.00010860","LAUNCH_DATE":"2021-03-14","PERIAPSIS":"546.486","APOAPSIS":"547.990","TIME_SYSTEM":"UTC","SEMIMAJOR_AXIS":"6925.373","RCS_SIZE":"LARGE","MEAN_MOTION_DDOT":"0.0000000000000","OBJECT_TYPE":"PAYLOAD","RA_OF_ASC_NODE":"340.6808","REF_FRAME":"TEME","MEAN_MOTION":"15.06392032","ARG_OF_PERICENTER":"106.1481","CLASSIFICATION_TYPE":"U","NORAD_CAT_ID":"47919","TLE_LINE2":"2 47919  53.0554 340.6808 0001086 106.1481 253.9627 15.06392032 32313","PERIOD":"95.593","GP_ID":"186226843","MEAN_MOTION_DOT":"-0.00001347","MEAN_ELEMENT_THEORY":"SGP4","REV_AT_EPOCH":"3231","OBJECT_NAME":"STARLINK-2405","DECAY_DATE":null,"MEAN_ANOMALY":"253.9627","EPOCH":"2021-10-04T16:08:48.598944","COUNTRY_CODE":"US","BSTAR":"-0.00007157300000","FILE":"3144803","TLE_LINE1":"1 47919U 21021BM  21277.67278471 -.00001347  00000-0 -71573-4 0  9991","OBJECT_ID":"2021-021BM","INCLINATION":"53.0554","SITE":"AFETR","EPHEMERIS_TYPE":"0","ELEMENT_SET_NO":"999","CENTER_NAME":"EARTH"},{"LAUNCH_DATE":"2021-03-24","ECCENTRICITY":"0.00015040","PERIAPSIS":"546.205","APOAPSIS":"548.288","TIME_SYSTEM":"UTC","SEMIMAJOR_AXIS":"6925.382","RCS_SIZE":"LARGE","MEAN_MOTION_DDOT":"0.0000000000000","OBJECT_TYPE":"PAYLOAD","RA_OF_ASC_NODE":"26.5330","REF_FRAME":"TEME","MEAN_MOTION":"15.06389151","ARG_OF_PERICENTER":"102.9119","CLASSIFICATION_TYPE":"U","NORAD_CAT_ID":"47977","TLE_LINE2":"2 47977  53.0571  26.5330 0001504 102.9119 257.2038 15.06389151 30952","PERIOD":"95.593","GP_ID":"186193146","MEAN_MOTION_DOT":"-0.00001384","MEAN_ELEMENT_THEORY":"SGP4","REV_AT_EPOCH":"3095","DECAY_DATE":null,"OBJECT_NAME":"STARLINK-2087","MEAN_ANOMALY":"257.2038","EPOCH":"2021-10-04T11:34:48.132192","COUNTRY_CODE":"US","BSTAR":"-0.00007404300000","FILE":"3144407","TLE_LINE1":"1 47977U 21024A   21277.48250153 -.00001384  00000-0 -74043-4 0  9990","OBJECT_ID":"2021-024A","INCLINATION":"53.0571","SITE":"AFETR","EPHEMERIS_TYPE":"0","ELEMENT_SET_NO":"999","CENTER_NAME":"EARTH"},{"SEMIMAJOR_AXIS":"6925.379","RCS_SIZE":"LARGE","PERIAPSIS":"546.383","LAUNCH_DATE":"2021-03-24","ECCENTRICITY":"0.00012440","APOAPSIS":"548.106","TIME_SYSTEM":"UTC","TLE_LINE2":"2 47978  53.0571  35.5644 0001244  98.8444 261.2686 15.06389994 30843","PERIOD":"95.593","NORAD_CAT_ID":"47978","MEAN_MOTION_DOT":"-0.00000412","GP_ID":"186226103","REV_AT_EPOCH":"3084","MEAN_ELEMENT_THEORY":"SGP4","MEAN_MOTION_DDOT":"0.0000000000000","OBJECT_TYPE":"PAYLOAD","REF_FRAME":"TEME","RA_OF_ASC_NODE":"35.5644","CLASSIFICATION_TYPE":"U","ARG_OF_PERICENTER":"98.8444","MEAN_MOTION":"15.06389994","COUNTRY_CODE":"US","BSTAR":"-0.00000874420000","FILE":"3144803","DECAY_DATE":null,"OBJECT_NAME":"STARLINK-1647","MEAN_ANOMALY":"261.2686","EPOCH":"2021-10-04T16:51:56.177856","ELEMENT_SET_NO":"999","CENTER_NAME":"EARTH","TLE_LINE1":"1 47978U 21024B   21277.70273354 -.00000412  00000-0 -87442-5 0  9993","INCLINATION":"53.0571","OBJECT_ID":"2021-024B","SITE":"AFETR","EPHEMERIS_TYPE":"0"},{"RCS_SIZE":"LARGE","SEMIMAJOR_AXIS":"6928.965","TIME_SYSTEM":"UTC","APOAPSIS":"551.872","ECCENTRICITY":"0.00015040","LAUNCH_DATE":"2021-03-24","PERIAPSIS":"549.788","MEAN_ELEMENT_THEORY":"SGP4","REV_AT_EPOCH":"371","GP_ID":"186226850","MEAN_MOTION_DOT":"-0.00808799","NORAD_CAT_ID":"47979","PERIOD":"95.667","TLE_LINE2":"2 47979  53.0483 327.3455 0001504  50.8947   0.2541 15.05220762  3716","MEAN_MOTION":"15.05220762","ARG_OF_PERICENTER":"50.8947","CLASSIFICATION_TYPE":"U","RA_OF_ASC_NODE":"327.3455","REF_FRAME":"TEME","OBJECT_TYPE":"PAYLOAD","MEAN_MOTION_DDOT":"0.0000000000000","FILE":"3144803","BSTAR":"-0.06006100000000","COUNTRY_CODE":"US","EPOCH":"2021-10-05T00:00:00.999648","MEAN_ANOMALY":"0.2541","OBJECT_NAME":"STARLINK-2325","DECAY_DATE":null,"CENTER_NAME":"EARTH","ELEMENT_SET_NO":"999","SITE":"AFETR","EPHEMERIS_TYPE":"0","OBJECT_ID":"2021-024C","INCLINATION":"53.0483","TLE_LINE1":"1 47979U 21024C   21278.00001157 -.00808799  00000-0 -60061-1 0  9996"},{"SEMIMAJOR_AXIS":"6727.913","RCS_SIZE":"LARGE","ECCENTRICITY":"0.00048120","LAUNCH_DATE":"2021-03-24","PERIAPSIS":"346.540","TIME_SYSTEM":"UTC","APOAPSIS":"353.015","MEAN_MOTION_DOT":"0.00090309","GP_ID":"186225601","TLE_LINE2":"2 47980  53.0440 317.2256 0004812 340.8619 305.6008 15.73193873  3673","PERIOD":"91.534","NORAD_CAT_ID":"47980","MEAN_ELEMENT_THEORY":"SGP4","REV_AT_EPOCH":"367","OBJECT_TYPE":"PAYLOAD","MEAN_MOTION_DDOT":"0.0000000000000","CLASSIFICATION_TYPE":"U","MEAN_MOTION":"15.73193873","ARG_OF_PERICENTER":"340.8619","REF_FRAME":"TEME","RA_OF_ASC_NODE":"317.2256","COUNTRY_CODE":"US","FILE":"3144803","BSTAR":"0.00064071000000","MEAN_ANOMALY":"305.6008","OBJECT_NAME":"STARLINK-2312","DECAY_DATE":null,"EPOCH":"2021-10-05T00:00:00.999648","ELEMENT_SET_NO":"999","CENTER_NAME":"EARTH","TLE_LINE1":"1 47980U 21024D   21278.00001157  .00090309  00000-0  64071-3 0  9993","EPHEMERIS_TYPE":"0","SITE":"AFETR","INCLINATION":"53.0440","OBJECT_ID":"2021-024D"},{"NORAD_CAT_ID":"47981","PERIOD":"95.593","TLE_LINE2":"2 47981  53.0565  35.3141 0001337 105.6887 254.4249 15.06392846 30851","GP_ID":"186225352","MEAN_MOTION_DOT":"0.00000439","MEAN_ELEMENT_THEORY":"SGP4","REV_AT_EPOCH":"3085","MEAN_MOTION_DDOT":"0.0000000000000","OBJECT_TYPE":"PAYLOAD","RA_OF_ASC_NODE":"35.3141","REF_FRAME":"TEME","ARG_OF_PERICENTER":"105.6887","MEAN_MOTION":"15.06392846","CLASSIFICATION_TYPE":"U","SEMIMAJOR_AXIS":"6925.370","RCS_SIZE":"LARGE","LAUNCH_DATE":"2021-03-24","PERIAPSIS":"546.310","ECCENTRICITY":"0.00013370","APOAPSIS":"548.161","TIME_SYSTEM":"UTC","ELEMENT_SET_NO":"999","CENTER_NAME":"EARTH","TLE_LINE1":"1 47981U 21024E   21277.75802028  .00000439  00000-0  48345-4 0  9993","OBJECT_ID":"2021-024E","INCLINATION":"53.0565","EPHEMERIS_TYPE":"0","SITE":"AFETR","COUNTRY_CODE":"US","BSTAR":"0.00004834500000","FILE":"3144803","OBJECT_NAME":"STARLINK-2303","DECAY_DATE":null,"MEAN_ANOMALY":"254.4249","EPOCH":"2021-10-04T18:11:32.952192"},{"EPOCH":"2021-10-05T00:00:00.999648","MEAN_ANOMALY":"269.8403","DECAY_DATE":null,"OBJECT_NAME":"STARLINK-2317","FILE":"3144803","BSTAR":"-0.04779200000000","COUNTRY_CODE":"US","SITE":"AFETR","EPHEMERIS_TYPE":"0","INCLINATION":"53.0520","OBJECT_ID":"2021-024F","TLE_LINE1":"1 47982U 21024F   21278.00001157 -.00924511  00000-0 -47792-1 0  9997","CENTER_NAME":"EARTH","ELEMENT_SET_NO":"999","TIME_SYSTEM":"UTC","APOAPSIS":"511.267","PERIAPSIS":"509.389","LAUNCH_DATE":"2021-03-24","ECCENTRICITY":"0.00013630","RCS_SIZE":"LARGE","SEMIMAJOR_AXIS":"6888.463","CLASSIFICATION_TYPE":"U","MEAN_MOTION":"15.18515627","ARG_OF_PERICENTER":"59.9217","REF_FRAME":"TEME","RA_OF_ASC_NODE":"323.5864","OBJECT_TYPE":"PAYLOAD","MEAN_MOTION_DDOT":"0.0000000000000","MEAN_ELEMENT_THEORY":"SGP4","REV_AT_EPOCH":"362","MEAN_MOTION_DOT":"-0.00924511","GP_ID":"186226603","TLE_LINE2":"2 47982  53.0520 323.5864 0001363  59.9217 269.8403 15.18515627  3628","PERIOD":"94.829","NORAD_CAT_ID":"47982"},{"EPOCH":"2021-10-05T00:00:00.999648","MEAN_ANOMALY":"164.3709","OBJECT_NAME":"STARLINK-2289","DECAY_DATE":null,"FILE":"3144803","BSTAR":"0.00059276000000","COUNTRY_CODE":"US","SITE":"AFETR","EPHEMERIS_TYPE":"0","INCLINATION":"53.0459","OBJECT_ID":"2021-024G","TLE_LINE1":"1 47983U 21024G   21278.00001157  .00083550  00000-0  59276-3 0  9997","CENTER_NAME":"EARTH","ELEMENT_SET_NO":"999","TIME_SYSTEM":"UTC","APOAPSIS":"355.038","PERIAPSIS":"344.478","LAUNCH_DATE":"2021-03-24","ECCENTRICITY":"0.00078480","RCS_SIZE":"LARGE","SEMIMAJOR_AXIS":"6727.893","CLASSIFICATION_TYPE":"U","ARG_OF_PERICENTER":"290.1023","MEAN_MOTION":"15.73200634","REF_FRAME":"TEME","RA_OF_ASC_NODE":"316.8869","OBJECT_TYPE":"PAYLOAD","MEAN_MOTION_DDOT":"0.0000000000000","REV_AT_EPOCH":"367","MEAN_ELEMENT_THEORY":"SGP4","MEAN_MOTION_DOT":"0.00083550","GP_ID":"186226351","PERIOD":"91.533","TLE_LINE2":"2 47983  53.0459 316.8869 0007848 290.1023 164.3709 15.73200634  3671","NORAD_CAT_ID":"47983"},{"NORAD_CAT_ID":"47984","PERIOD":"91.530","TLE_LINE2":"2 47984  53.0439 317.2177 0004590 345.5055 303.5239 15.73247741  3673","GP_ID":"186225102","MEAN_MOTION_DOT":"-0.00022057","REV_AT_EPOCH":"367","MEAN_ELEMENT_THEORY":"SGP4","MEAN_MOTION_DDOT":"0.0000000000000","OBJECT_TYPE":"PAYLOAD","RA_OF_ASC_NODE":"317.2177","REF_FRAME":"TEME","MEAN_MOTION":"15.73247741","ARG_OF_PERICENTER":"345.5055","CLASSIFICATION_TYPE":"U","SEMIMAJOR_AXIS":"6727.759","RCS_SIZE":"LARGE","ECCENTRICITY":"0.00045900","LAUNCH_DATE":"2021-03-24","PERIAPSIS":"346.536","APOAPSIS":"352.712","TIME_SYSTEM":"UTC","ELEMENT_SET_NO":"999","CENTER_NAME":"EARTH","TLE_LINE1":"1 47984U 21024H   21278.00001157 -.00022057  00000-0 -15266-3 0  9996","OBJECT_ID":"2021-024H","INCLINATION":"53.0439","EPHEMERIS_TYPE":"0","SITE":"AFETR","COUNTRY_CODE":"US","BSTAR":"-0.00015266000000","FILE":"3144803","OBJECT_NAME":"STARLINK-2316","DECAY_DATE":null,"MEAN_ANOMALY":"303.5239","EPOCH":"2021-10-05T00:00:00.999648"},{"EPOCH":"2021-10-05T00:00:00.999648","MEAN_ANOMALY":"315.2558","OBJECT_NAME":"STARLINK-2308","DECAY_DATE":null,"FILE":"3144803","BSTAR":"0.00312440000000","COUNTRY_CODE":"US","SITE":"AFETR","EPHEMERIS_TYPE":"0","INCLINATION":"53.0530","OBJECT_ID":"2021-024J","TLE_LINE1":"1 47985U 21024J   21278.00001157  .00044511  00000-0  31244-2 0  9997","CENTER_NAME":"EARTH","ELEMENT_SET_NO":"999","TIME_SYSTEM":"UTC","APOAPSIS":"553.170","LAUNCH_DATE":"2021-03-24","ECCENTRICITY":"0.00012480","PERIAPSIS":"551.440","RCS_SIZE":"LARGE","SEMIMAJOR_AXIS":"6930.440","CLASSIFICATION_TYPE":"U","ARG_OF_PERICENTER":"78.8834","MEAN_MOTION":"15.04740333","REF_FRAME":"TEME","RA_OF_ASC_NODE":"327.8234","OBJECT_TYPE":"PAYLOAD","MEAN_MOTION_DDOT":"0.0000000000000","REV_AT_EPOCH":"365","MEAN_ELEMENT_THEORY":"SGP4","MEAN_MOTION_DOT":"0.00044511","GP_ID":"186225852","PERIOD":"95.698","TLE_LINE2":"2 47985  53.0530 327.8234 0001248  78.8834 315.2558 15.04740333  3656","NORAD_CAT_ID":"47985"}];
